[{"OBJECT_NAME":"ONEWEB-0258","OBJECT_ID":"2021-060K","EPOCH":"2026-04-26T08:24:36.156672","MEAN_MOTION":13.16594574,"ECCENTRICITY":0.0001798,"INCLINATION":87.9084,"RA_OF_ASC_NODE":239.0772,"ARG_OF_PERICENTER":99.2423,"MEAN_ANOMALY":260.8912,"EPHEMERIS_TYPE":0,"CLASSIFICATION_TYPE":"U","NORAD_CAT_ID":48976,"ELEMENT_SET_NO":999,"REV_AT_EPOCH":23277,"BSTAR":-0.00014682,"MEAN_MOTION_DOT":-4.3e-07,"MEAN_MOTION_DDOT":0.0},{"OBJECT_NAME":"ONEWEB-0259","OBJECT_ID":"2021-060L","EPOCH":"2026-04-26T10:04:54.562944","MEAN_MOTION":13.16596767,"ECCENTRICITY":0.0001768,"INCLINATION":87.9085,"RA_OF_ASC_NODE":239.0632,"ARG_OF_PERICENTER":97.1742,"MEAN_ANOMALY":262.959,"EPHEMERIS_TYPE":0,"CLASSIFICATION_TYPE":"U","NORAD_CAT_ID":48977,"ELEMENT_SET_NO":999,"REV_AT_EPOCH":23281,"BSTAR":9.517400000000001e-05,"MEAN_MOTION_DOT":4.9e-07,"MEAN_MOTION_DDOT":0.0},{"OBJECT_NAME":"ONEWEB-0260","OBJECT_ID":"2021-060M","EPOCH":"2026-04-26T08:02:56.661792","MEAN_MOTION":13.16594547,"ECCENTRICITY":0.0002243,"INCLINATION":87.9074,"RA_OF_ASC_NODE":239.0852,"ARG_OF_PERICENTER":107.0877,"MEAN_ANOMALY":253.0499,"EPHEMERIS_TYPE":0,"CLASSIFICATION_TYPE":"U","NORAD_CAT_ID":48978,"ELEMENT_SET_NO":999,"REV_AT_EPOCH":23278,"BSTAR":0.00029733,"MEAN_MOTION_DOT":1.27e-06,"MEAN_MOTION_DDOT":0.0},{"OBJECT_NAME":"ONEWEB-0261","OBJECT_ID":"2021-060N","EPOCH":"2026-04-26T07:19:36.579936","MEAN_MOTION":13.16596426,"ECCENTRICITY":0.0002126,"INCLINATION":87.9077,"RA_OF_ASC_NODE":239.0889,"ARG_OF_PERICENTER":94.0498,"MEAN_ANOMALY":266.0876,"EPHEMERIS_TYPE":0,"CLASSIFICATION_TYPE":"U","NORAD_CAT_ID":48979,"ELEMENT_SET_NO":999,"REV_AT_EPOCH":23283,"BSTAR":3.3289000000000006e-05,"MEAN_MOTION_DOT":2.6e-07,"MEAN_MOTION_DDOT":0.0},{"OBJECT_NAME":"ONEWEB-0262","OBJECT_ID":"2021-060P","EPOCH":"2026-04-26T06:51:08.275680","MEAN_MOTION":13.16594552,"ECCENTRICITY":0.0001669,"INCLINATION":87.9082,"RA_OF_ASC_NODE":239.0775,"ARG_OF_PERICENTER":94.4504,"MEAN_ANOMALY":265.6817,"EPHEMERIS_TYPE":0,"CLASSIFICATION_TYPE":"U","NORAD_CAT_ID":48980,"ELEMENT_SET_NO":999,"REV_AT_EPOCH":23279,"BSTAR":-0.00016073000000000001,"MEAN_MOTION_DOT":-4.9e-07,"MEAN_MOTION_DDOT":0.0},{"OBJECT_NAME":"ONEWEB-0263","OBJECT_ID":"2021-060Q","EPOCH":"2026-04-26T07:36:43.017120","MEAN_MOTION":13.16595212,"ECCENTRICITY":0.0002003,"INCLINATION":87.9081,"RA_OF_ASC_NODE":239.0824,"ARG_OF_PERICENTER":91.659,"MEAN_ANOMALY":268.477,"EPHEMERIS_TYPE":0,"CLASSIFICATION_TYPE":"U","NORAD_CAT_ID":48981,"ELEMENT_SET_NO":999,"REV_AT_EPOCH":23276,"BSTAR":0.00025945000000000005,"MEAN_MOTION_DOT":1.12e-06,"MEAN_MOTION_DDOT":0.0},{"OBJECT_NAME":"ONEWEB-0264","OBJECT_ID":"2021-060R","EPOCH":"2026-04-26T08:30:18.448416","MEAN_MOTION":13.16596175,"ECCENTRICITY":0.0002098,"INCLINATION":87.9082,"RA_OF_ASC_NODE":239.0787,"ARG_OF_PERICENTER":100.1402,"MEAN_ANOMALY":259.9965,"EPHEMERIS_TYPE":0,"CLASSIFICATION_TYPE":"U","NORAD_CAT_ID":48982,"ELEMENT_SET_NO":999,"REV_AT_EPOCH":23277,"BSTAR":1.5674e-05,"MEAN_MOTION_DOT":1.9e-07,"MEAN_MOTION_DDOT":0.0},{"OBJECT_NAME":"ONEWEB-0266","OBJECT_ID":"2021-060T","EPOCH":"2026-04-26T07:11:39.072192","MEAN_MOTION":13.16594269,"ECCENTRICITY":0.0001814,"INCLINATION":87.9081,"RA_OF_ASC_NODE":239.0793,"ARG_OF_PERICENTER":102.3574,"MEAN_ANOMALY":257.7761,"EPHEMERIS_TYPE":0,"CLASSIFICATION_TYPE":"U","NORAD_CAT_ID":48984,"ELEMENT_SET_NO":999,"REV_AT_EPOCH":23275,"BSTAR":-1.3654e-06,"MEAN_MOTION_DOT":1.2e-07,"MEAN_MOTION_DDOT":0.0},{"OBJECT_NAME":"ONEWEB-0267","OBJECT_ID":"2021-060U","EPOCH":"2026-04-26T07:27:36.272736","MEAN_MOTION":13.16595039,"ECCENTRICITY":0.0002012,"INCLINATION":87.9082,"RA_OF_ASC_NODE":239.0734,"ARG_OF_PERICENTER":96.5974,"MEAN_ANOMALY":263.5386,"EPHEMERIS_TYPE":0,"CLASSIFICATION_TYPE":"U","NORAD_CAT_ID":48985,"ELEMENT_SET_NO":999,"REV_AT_EPOCH":23276,"BSTAR":0.00012785,"MEAN_MOTION_DOT":6.2e-07,"MEAN_MOTION_DDOT":0.0},{"OBJECT_NAME":"ONEWEB-0268","OBJECT_ID":"2021-060V","EPOCH":"2026-04-26T08:31:25.930272","MEAN_MOTION":13.16593182,"ECCENTRICITY":0.0002002,"INCLINATION":87.9085,"RA_OF_ASC_NODE":239.0741,"ARG_OF_PERICENTER":103.3283,"MEAN_ANOMALY":256.8071,"EPHEMERIS_TYPE":0,"CLASSIFICATION_TYPE":"U","NORAD_CAT_ID":48986,"ELEMENT_SET_NO":999,"REV_AT_EPOCH":23303,"BSTAR":1.4230000000000001e-05,"MEAN_MOTION_DOT":1.8e-07,"MEAN_MOTION_DDOT":0.0},{"OBJECT_NAME":"ONEWEB-0269","OBJECT_ID":"2021-060W","EPOCH":"2026-04-26T08:04:05.768832","MEAN_MOTION":13.16594891,"ECCENTRICITY":0.0001933,"INCLINATION":87.907,"RA_OF_ASC_NODE":239.0868,"ARG_OF_PERICENTER":107.7706,"MEAN_ANOMALY":252.3636,"EPHEMERIS_TYPE":0,"CLASSIFICATION_TYPE":"U","NORAD_CAT_ID":48987,"ELEMENT_SET_NO":999,"REV_AT_EPOCH":23280,"BSTAR":0.00028846,"MEAN_MOTION_DOT":1.23e-06,"MEAN_MOTION_DDOT":0.0},{"OBJECT_NAME":"ONEWEB-0270","OBJECT_ID":"2021-060X","EPOCH":"2026-04-26T08:29:10.567392","MEAN_MOTION":13.16594605,"ECCENTRICITY":0.0001859,"INCLINATION":87.9085,"RA_OF_ASC_NODE":239.0764,"ARG_OF_PERICENTER":89.2519,"MEAN_ANOMALY":270.8825,"EPHEMERIS_TYPE":0,"CLASSIFICATION_TYPE":"U","NORAD_CAT_ID":48988,"ELEMENT_SET_NO":999,"REV_AT_EPOCH":23284,"BSTAR":5.5979999999999996e-05,"MEAN_MOTION_DOT":3.4e-07,"MEAN_MOTION_DDOT":0.0},{"OBJECT_NAME":"ONEWEB-0271","OBJECT_ID":"2021-060Y","EPOCH":"2026-04-26T08:10:56.510112","MEAN_MOTION":13.16594938,"ECCENTRICITY":0.0001964,"INCLINATION":87.9081,"RA_OF_ASC_NODE":239.07,"ARG_OF_PERICENTER":93.8828,"MEAN_ANOMALY":266.2528,"EPHEMERIS_TYPE":0,"CLASSIFICATION_TYPE":"U","NORAD_CAT_ID":48989,"ELEMENT_SET_NO":999,"REV_AT_EPOCH":23284,"BSTAR":4.2980000000000005e-05,"MEAN_MOTION_DOT":2.9e-07,"MEAN_MOTION_DDOT":0.0},{"OBJECT_NAME":"ONEWEB-0272","OBJECT_ID":"2021-060Z","EPOCH":"2026-04-26T06:53:24.124992","MEAN_MOTION":13.16593256,"ECCENTRICITY":0.0002168,"INCLINATION":87.9081,"RA_OF_ASC_NODE":239.0915,"ARG_OF_PERICENTER":101.2724,"MEAN_ANOMALY":258.865,"EPHEMERIS_TYPE":0,"CLASSIFICATION_TYPE":"U","NORAD_CAT_ID":48990,"ELEMENT_SET_NO":999,"REV_AT_EPOCH":23278,"BSTAR":-0.0002922,"MEAN_MOTION_DOT":-9.9e-07,"MEAN_MOTION_DDOT":0.0},{"OBJECT_NAME":"ONEWEB-0273","OBJECT_ID":"2021-060AA","EPOCH":"2026-04-26T07:25:20.490816","MEAN_MOTION":13.16594508,"ECCENTRICITY":0.0001894,"INCLINATION":87.9083,"RA_OF_ASC_NODE":239.0857,"ARG_OF_PERICENTER":97.0462,"MEAN_ANOMALY":263.0884,"EPHEMERIS_TYPE":0,"CLASSIFICATION_TYPE":"U","NORAD_CAT_ID":48991,"ELEMENT_SET_NO":999,"REV_AT_EPOCH":23276,"BSTAR":0.00019564000000000002,"MEAN_MOTION_DOT":8.8e-07,"MEAN_MOTION_DDOT":0.0},{"OBJECT_NAME":"ONEWEB-0274","OBJECT_ID":"2021-060AB","EPOCH":"2026-04-26T08:01:48.203616","MEAN_MOTION":13.16594431,"ECCENTRICITY":0.0002196,"INCLINATION":87.9075,"RA_OF_ASC_NODE":239.0889,"ARG_OF_PERICENTER":104.7314,"MEAN_ANOMALY":255.406,"EPHEMERIS_TYPE":0,"CLASSIFICATION_TYPE":"U","NORAD_CAT_ID":48992,"ELEMENT_SET_NO":999,"REV_AT_EPOCH":23280,"BSTAR":4.6135e-05,"MEAN_MOTION_DOT":3e-07,"MEAN_MOTION_DDOT":0.0}]