ONEWEB-0258             
1 48976U 21060K   26116.35041848 -.00000043  00000+0 -14682-3 0  9994
2 48976  87.9084 239.0772 0001798  99.2423 260.8912 13.16594574232770
ONEWEB-0259             
1 48977U 21060L   26116.42007596  .00000049  00000+0  95174-4 0  9995
2 48977  87.9085 239.0632 0001768  97.1742 262.9590 13.16596767232811
ONEWEB-0260             
1 48978U 21060M   26116.33537803  .00000127  00000+0  29733-3 0  9999
2 48978  87.9074 239.0852 0002243 107.0877 253.0499 13.16594547232782
ONEWEB-0261             
1 48979U 21060N   26116.30528449  .00000026  00000+0  33289-4 0  9993
2 48979  87.9077 239.0889 0002126  94.0498 266.0876 13.16596426232837
ONEWEB-0262             
1 48980U 21060P   26116.28551245 -.00000049  00000+0 -16073-3 0  9990
2 48980  87.9082 239.0775 0001669  94.4504 265.6817 13.16594552232795
ONEWEB-0263             
1 48981U 21060Q   26116.31716455  .00000112  00000+0  25945-3 0  9998
2 48981  87.9081 239.0824 0002003  91.6590 268.4770 13.16595212232767
ONEWEB-0264             
1 48982U 21060R   26116.35438019  .00000019  00000+0  15674-4 0  9995
2 48982  87.9082 239.0787 0002098 100.1402 259.9965 13.16596175232770
ONEWEB-0266             
1 48984U 21060T   26116.29975778  .00000012  00000+0 -13654-5 0  9999
2 48984  87.9081 239.0793 0001814 102.3574 257.7761 13.16594269232757
ONEWEB-0267             
1 48985U 21060U   26116.31083649  .00000062  00000+0  12785-3 0  9996
2 48985  87.9082 239.0734 0002012  96.5974 263.5386 13.16595039232768
ONEWEB-0268             
1 48986U 21060V   26116.35516123  .00000018  00000+0  14230-4 0  9998
2 48986  87.9085 239.0741 0002002 103.3283 256.8071 13.16593182233033
ONEWEB-0269             
1 48987U 21060W   26116.33617788  .00000123  00000+0  28846-3 0  9990
2 48987  87.9070 239.0868 0001933 107.7706 252.3636 13.16594891232808
ONEWEB-0270             
1 48988U 21060X   26116.35359453  .00000034  00000+0  55980-4 0  9996
2 48988  87.9085 239.0764 0001859  89.2519 270.8825 13.16594605232845
ONEWEB-0271             
1 48989U 21060Y   26116.34093183  .00000029  00000+0  42980-4 0  9991
2 48989  87.9081 239.0700 0001964  93.8828 266.2528 13.16594938232841
ONEWEB-0272             
1 48990U 21060Z   26116.28708478 -.00000099  00000+0 -29220-3 0  9996
2 48990  87.9081 239.0915 0002168 101.2724 258.8650 13.16593256232785
ONEWEB-0273             
1 48991U 21060AA  26116.30926494  .00000088  00000+0  19564-3 0  9996
2 48991  87.9083 239.0857 0001894  97.0462 263.0884 13.16594508232765
ONEWEB-0274             
1 48992U 21060AB  26116.33458569  .00000030  00000+0  46135-4 0  9995
2 48992  87.9075 239.0889 0002196 104.7314 255.4060 13.16594431232801
